SBSS (USA 216)          
1 37168U 10048A   26068.88624904  .00004946  00000+0  24191-3 0  9993
2 37168  97.7474 312.3885 0082264 184.8326 306.5835 15.15724210837421
STARLINK-30441          
1 57869U 23144F   26067.99352673 -.00000376  00000+0 -43216-5 0  9992
2 57869  42.9993 288.8591 0001239 270.5362  89.5347 15.26742636137496
